METEOSAT-12 (MTG-I1)
1 54743U 22170C   26178.92753183  .00000004  00000+0  00000+0 0  9999
2 54743   0.7500  24.6820 0003680  72.2185 152.7271  1.00275638 13080
